# From MPC 84024
P/2012 US27 (Siding Spring),e,39.3089,49.1813,1.1408,5.168405,0.0838821,0.64768553,121.9112,01/30.0/2017,2000,g 13.5,4.0
# From MPC 84932
C/2012 V1 (PANSTARRS),e,157.8363,85.3513,123.1917,1524,0.0000166,0.99862996,0.0000,07/20.5679/2013,2000,g 12.0,4.0
# From MPC 88695
C/2012 V2 (LINEAR),e,67.2418,262.1655,217.4644,679.4390,0.0000557,0.99784562,0.0000,08/15.5093/2013,2000,g  9.0,4.0
# From MPC 82721
P/2012 WA34 (Lemmon-PANSTARRS),e,6.1204,94.5111,352.8162,4.785522,0.0941478,0.33659381,138.3470,01/30.0/2017,2000,g 13.5,4.0
# From MPC 97494
C/2012 X1 (LINEAR),e,44.3564,113.0765,132.1188,159.8150,0.0004878,0.99000887,0.0000,02/21.8925/2014,2000,g  4.8,3.6
# From MPC 88327
C/2012 X2 (PANSTARRS),e,34.1152,271.0493,215.7701,20.58421,0.0105536,0.76887664,14.7810,01/30.0/2017,2000,g  9.0,4.0
# From MPC 83521
C/2012 Y1 (LINEAR),e,20.9043,193.1438,269.0942,37.82755,0.0042363,0.94641445,6.2440,01/30.0/2017,2000,g 15.0,4.0
# From MPC 83521
C/2012 Y3 (McNaught),e,73.5030,122.6712,235.6834,27.86761,0.0066997,0.93636876,10.8627,01/30.0/2017,2000,g 11.0,4.0
# From MPC102950
C/2013 A1 (Siding Spring),e,129.0255,301.0118,2.4483,6130,0.0000021,0.99977159,0.0000,10/24.9189/2014,2000,g  8.2,2.4
# From MPC 84024
P/2013 A2 (Scotti),e,3.3654,355.8038,134.7060,4.007170,0.1228704,0.45527415,178.5050,01/30.0/2017,2000,g 15.5,4.0
# From MPC 82721
P/2013 AL76 (Catalina),e,144.8461,145.9521,27.2742,6.505239,0.0594031,0.68523105,89.5692,01/30.0/2017,2000,g 16.0,4.0
# From MPC 87915
C/2013 B2 (Catalina),h,07/01.2015/2013,43.4631,331.9635,156.5367,1.001227,3.741478,2000,11.0,4.0
# From MPC100577
C/2013 C2 (Tenagra),e,21.3367,247.5315,308.9943,16.06927,0.0153006,0.43163881,7.8622,01/30.0/2017,2000,g  4.0,4.0
# From MPC 86642
P/2013 CU129 (PANSTARRS),e,12.1550,46.2260,211.9241,2.877032,0.2019700,0.72250322,256.9111,01/30.0/2017,2000,g 18.0,2.0
# From MPC 84024
C/2013 D1 (Holvorcem),e,10.0820,294.9468,252.7720,11.29461,0.0259655,0.78189698,36.0084,01/30.0/2017,2000,g 14.0,4.0
# From MPC 90270
C/2013 E1 (McNaught),e,158.7221,134.0396,311.6905,14678,0.0000006,0.99946892,0.0000,06/15.0938/2013,2000,g  5.5,4.0
# From MPC 88327
C/2013 E2 (Iwamoto),e,21.8728,182.5075,95.6538,218.5127,0.0003051,0.99356277,0.0000,03/09.5449/2013,2000,g 11.5,4.0
# From MPC 88695
P/2013 EW90 (Tenagra),e,31.8044,160.3361,346.4926,4.112940,0.1181614,0.19585308,185.4286,01/30.0/2017,2000,g 12.0,4.0
# From MPC 84626
C/2013 F1 (Boattini),h,12/01.7783/2012,79.5892,30.0587,92.0515,1.002402,1.864198,2000,13.0,4.0
# From MPC 88695
C/2013 F2 (Catalina),e,61.7786,344.2684,123.1306,1062,0.0000285,0.99413227,0.0000,04/18.4220/2013,2000,g  7.0,4.0
# From MPC 84933
C/2013 F3 (McNaught),e,85.5085,266.0499,18.7214,571.8381,0.0000721,0.99606141,0.0000,05/24.9373/2013,2000,g 12.0,4.0
# From MPC 91612
P/2013 G1 (Kowalski),e,5.4728,221.4435,51.1825,6.876622,0.0546564,0.51298079,62.6353,01/30.0/2017,2000,g 11.0,4.0
# From MPC 84933
C/2013 G2 (McNaught),h,12/06.2926/2012,95.9455,274.0209,293.8175,1.000014,2.150054,2000,11.5,4.0
# From MPC102950
C/2013 G3 (PANSTARRS),h,11/15.4139/2014,64.6825,208.1090,76.5179,1.001369,3.851986,2000,9.0,4.0
# From MPC 84025
P/2013 G4 (PANSTARRS),e,5.9231,339.7371,214.6080,4.435820,0.1054977,0.41093261,152.8578,01/30.0/2017,2000,g 15.0,4.0
# From MPC 84318
C/2013 G5 (Catalina),e,40.6265,144.1914,165.6461,4893,0.0000029,0.99981075,0.0000,09/01.2954/2013,2000,g 14.0,4.0
# From MPC 87478
C/2013 G6 (Lemmon),e,124.1329,44.5506,215.7597,375.3235,0.0001355,0.99453140,0.0000,07/25.1746/2013,2000,g 13.5,4.0
# From MPC 95209
C/2013 G7 (McNaught),e,105.1086,48.3634,218.3233,1740,0.0000136,0.99731048,0.0000,03/19.0734/2014,2000,g  7.5,4.0
# From MPC 95209
C/2013 G8 (PANSTARRS),e,27.6369,240.9794,80.1013,1828,0.0000126,0.99719007,0.0000,11/14.3205/2013,2000,g  8.5,4.0
# From MPC 10027
C/2013 G9 (Tenagra),e,146.2533,35.7445,205.0846,23792,0.0000003,0.99977554,0.0000,01/15.3087/2015,2000,g  7.0,4.0
# From MPC 84933
C/2013 H1 (La Sagra),e,27.0731,84.8865,136.6787,196.5861,0.0003576,0.98653543,0.0000,05/20.1714/2013,2000,g 13.0,4.0
# From MPC 94670
C/2013 H2 (Boattini),e,128.3884,262.7101,36.0174,5672,0.0000023,0.99867719,0.0000,01/23.2522/2014,2000,g  6.5,4.0
# From MPC 91613
P/2013 J2 (McNaught),e,15.5038,289.3934,37.8280,6.232211,0.0633492,0.65551985,79.5981,01/30.0/2017,2000,g 13.0,4.0
# From MPC 87916
C/2013 J3 (McNaught),e,118.2041,200.7420,320.9860,1008,0.0000308,0.99603683,0.0000,02/21.8894/2013,2000,g 10.0,4.0
# From MPC 87066
P/2013 J4 (PANSTARRS),e,5.0352,84.0011,118.7706,2.475100,0.2531133,0.23099371,359.9443,11/04.0/2013,2000,g 14.0,4.0
# From MPC 84319
C/2013 J5 (Boattini),e,136.0166,256.7219,19.1391,1289,0.0000213,0.99618960,0.0000,11/28.7371/2012,2000,g 10.0,4.0
# From MPC 84627
C/2013 J6 (Catalina),e,85.0036,68.3374,125.6376,59.57224,0.0021436,0.95943880,2.9832,01/30.0/2017,2000,g 14.5,4.0
# From MPC 84319
C/2013 K1 (Christensen),e,42.3903,125.8379,171.2932,76.43707,0.0014749,0.98763752,0.0000,05/30.1256/2013,2000,g 18.0,4.0
# From MPC 87916
C/2013 L2 (Catalina),e,106.7838,285.8135,1.7906,3506,0.0000047,0.99861163,0.0000,05/09.5816/2012,2000,g  8.0,4.0
# From MPC 86229
P/2013 N3 (PANSTARRS),e,2.1707,17.6655,323.8412,7.403276,0.0489292,0.59125446,53.0299,01/30.0/2017,2000,g 13.0,4.0
# From MPC 88328
C/2013 N4 (Borisov),e,37.0315,322.6126,142.3839,47.89017,0.0029740,0.97461027,0.0000,08/20.8855/2013,2000,g 12.0,4.0
# From MPC 85834
P/2013 N5 (PANSTARRS),e,23.3476,187.2232,176.9718,6.814392,0.0554068,0.73026470,72.5770,01/30.0/2017,2000,g 17.0,4.0
# From MPC 87479
P/2013 O2 (PANSTARRS),e,13.3432,207.5645,213.4019,3.815229,0.1322584,0.44068687,150.9153,01/30.0/2017,2000,g 14.0,4.0
# From MPC 90767
C/2013 O3 (McNaught),e,102.8278,276.6959,337.8806,663.5857,0.0000577,0.99521030,0.0000,09/09.4516/2013,2000,g 11.5,4.0
# From MPC 85834
P/2013 P1 (PANSTARRS),e,18.7067,160.7939,137.8919,8.561158,0.0393464,0.60502158,56.4342,01/30.0/2017,2000,g 12.0,4.0
# From MPC 93584
C/2013 P2 (PANSTARRS),e,125.6195,2.0652,104.9519,768.5361,0.0000463,0.99630917,0.0000,02/15.9513/2014,2000,g 11.5,4.0
# From MPC102094
C/2013 P3 (Palomar),h,11/22.2370/2014,93.9194,177.2755,177.0958,1.000809,8.644002,2000,5.5,4.0
# From MPC 96865
C/2013 P4 (PANSTARRS),e,4.2684,256.5831,113.4667,14.69533,0.0174959,0.59413350,15.8020,01/30.0/2017,2000,g  7.5,4.0
# From MPC 88696
C/2013 PE67 (Catalina-Spacewatch),e,116.6711,325.9501,59.9046,51.97010,0.0026307,0.96396843,3.0265,01/30.0/2017,2000,g 14.0,4.0
# From MPC102950
C/2013 R1 (Lovejoy),e,63.9309,70.6432,67.2170,522.5110,0.0000825,0.99844467,0.0000,12/22.5925/2013,2000,g  7.0,4.0
# From MPC 94671
P/2013 R3 (Catalina-PANSTARRS),e,0.8678,342.3367,10.3730,3.038683,0.1860699,0.27411231,234.5153,01/30.0/2017,2000,g 14.0,4.0
# From unp
P/2013 R3-A (Catalina-PANSTARRS),e,0.8672,342.3034,10.4126,3.038536,0.1860834,0.27408134,234.5287,01/30.0/2017,2000,g  9.0,4.0
# From MPEC 2015-M77
P/2013 R3-B (Catalina-PANSTARRS),e,0.8684,342.3594,10.3467,3.038762,0.1860626,0.27412758,234.5082,01/30.0/2017,2000,g  9.0,4.0
# From MPC 86230
C/2013 S1 (Catalina),e,83.9578,221.5924,165.9960,3713,0.0000044,0.99924008,0.0000,08/02.5809/2013,2000,g 13.0,4.0
# From MPC 85835
P/2013 T1 (PANSTARRS),e,24.2172,10.1482,346.1417,5.872867,0.0692514,0.62184242,88.6536,01/30.0/2017,2000,g 16.5,4.0
# From MPC 86643
P/2013 T2 (Schwartz),e,9.5793,1.1187,345.6425,3.473053,0.1522779,0.50800591,203.0582,01/30.0/2017,2000,g 16.0,4.0
# From MPC 10027
C/2013 TW5 (Spacewatch),e,31.4050,319.6920,190.4986,295.3917,0.0001941,0.98024727,0.0000,08/18.0912/2014,2000,g  7.5,4.0
# From MPC 88696
P/2013 TL117 (Lemmon),e,9.3649,3.3125,112.2962,3.606215,0.1439218,0.68939303,155.0114,01/30.0/2017,2000,g 17.5,4.0
# From MPC 86643
C/2013 U1 (Catalina),e,23.9404,211.2480,143.1146,11.89257,0.0240320,0.79661388,28.0875,01/30.0/2017,2000,g 13.5,4.0
# From MPC102095
C/2013 U2 (Holvorcem),e,43.2372,6.8844,107.9145,721.8708,0.0000508,0.99288164,0.0000,10/28.0070/2014,2000,g  7.5,4.0
# From MPC102951
C/2013 UQ4 (Catalina),e,145.0341,317.8494,23.6126,58.27933,0.0022153,0.98132650,0.0000,07/04.8166/2014,2000,g 13.5,4.0
# From MPC102951
C/2013 US10 (Catalina),h,11/15.7002/2015,148.8785,186.1473,340.3734,1.000273,0.823395,2000,4.4,4.0
# From MPC102951
C/2013 V1 (Boattini),h,04/21.3821/2014,65.1743,72.8238,48.1606,1.002001,1.666119,2000,10.5,4.0
# From MPC 10027
C/2013 V2 (Borisov),h,10/14.0991/2014,37.8532,48.4090,94.5024,1.002794,3.509776,2000,7.0,4.0
# From MPC 88329
C/2013 V3 (Nevski),e,32.1263,100.9441,339.6328,12.64728,0.0219133,0.89010677,26.0532,01/30.0/2017,2000,g 14.0,4.0
# From MPC102951
C/2013 V4 (Catalina),h,10/07.6278/2015,67.8598,55.6317,40.4561,1.001805,5.185721,2000,6.0,4.0
# From MPC102951
C/2013 V5 (Oukaimeden),e,154.8659,278.9105,314.8596,349.6532,0.0001507,0.99820600,0.0000,09/27.5887/2014,2000,g  9.0,4.0
# From MPC 91613
P/2013 W1 (PANSTARRS),e,4.6984,117.8596,1.3665,3.486906,0.1513714,0.59328208,160.3180,01/30.0/2017,2000,g 17.5,4.0
# From MPC 10027
C/2013 W2 (PANSTARRS),e,4.8645,178.5705,304.5764,9.854010,0.0318628,0.55532410,25.0828,01/30.0/2017,2000,g 13.5,2.0
# From MPC102951
C/2013 X1 (PANSTARRS),h,04/20.7292/2016,163.2322,130.9775,164.4948,1.001056,1.314727,2000,10.5,2.0
# From MPC 90768
C/2013 Y2 (PANSTARRS),e,29.3992,243.3442,308.9589,233.9167,0.0002755,0.99178710,0.0000,06/13.7586/2014,2000,g 12.0,4.0
# From MPC101095
P/2013 YG46 (Spacewatch),e,7.8591,48.9090,242.3813,3.275488,0.1662608,0.45423233,0.0824,01/30.0/2017,2000,g 10.0,4.0
# From MPC 89728
P/2014 A2 (Hill),e,24.5159,106.6665,356.2808,5.919923,0.0684274,0.64875737,81.4507,01/30.0/2017,2000,g 15.0,4.0
# From MPC 92981
P/2014 A3 (PANSTARRS),e,13.6933,230.4594,212.3805,4.657002,0.0980719,0.24052647,136.1961,01/30.0/2017,2000,g 12.0,4.0
# From MPC102951
C/2014 A4 (SONEAR),h,09/05.7045/2015,121.3673,29.7329,356.7632,1.000782,4.179408,2000,6.0,4.0
# From MPC 93585
C/2014 A5 (PANSTARRS),e,31.9730,310.0451,182.4263,87.42318,0.0012058,0.94508474,1.0889,01/30.0/2017,2000,g 10.0,4.0
# From MPC 96865
